IRIDIUM 166             
1 43570U 18061B   23303.93137008  .00000188  00000+0  60179-4 0  9990
2 43570  86.3926  98.0681 0002062  98.2617 261.8813 14.34216814275760
IRIDIUM 158             
1 43571U 18061C   23304.52757379  .00000276  00000+0  91461-4 0  9992
2 43571  86.3927  97.8275 0002415  97.0696 263.0775 14.34217990275828
IRIDIUM 165             
1 43572U 18061D   23303.92502632  .00000222  00000+0  72275-4 0  9999
2 43572  86.3928  98.1079 0002427  97.1333 263.0139 14.34218571275750
IRIDIUM 155             
1 43573U 18061E   23304.51488856  .00000231  00000+0  75577-4 0  9995
2 43573  86.3925  97.7775 0001832  91.5907 268.5499 14.34218701275811
IRIDIUM 154             
1 43574U 18061F   23303.86794001  .00000177  00000+0  56197-4 0  9991
2 43574  86.3927  98.1348 0002229  85.8056 274.3395 14.34219613275764
IRIDIUM 163             
1 43575U 18061G   23303.91868503  .00000164  00000+0  51559-4 0  9990
2 43575  86.3926  98.0591 0002081  90.4585 269.6849 14.34216660275746
IRIDIUM 156             
1 43576U 18061H   23303.89331795  .00000182  00000+0  58093-4 0  9996
2 43576  86.3924  98.0754 0002050  98.0424 262.1005 14.34219103275734
IRIDIUM 164             
1 43577U 18061J   23304.15336043  .00000219  00000+0  71165-4 0  9994
2 43577  86.3927  97.9921 0002212  95.0403 265.1045 14.34218095275811
